TEMPEST-D               
1 43547U 98067NV  19134.63599898  .00007940  00000-0  11234-3 0  9992
2 43547  51.6376 162.1884 0006080 357.0736   3.0220 15.57518278 47117
RAINCUBE                
1 43548U 98067NW  19134.58164055  .00023486  00000-0  28288-3 0  9990
2 43548  51.6359 159.5677 0006470   8.4225 351.6876 15.60666764 47591
HALOSAT                 
1 43549U 98067NX  19134.51974373  .00020647  00000-0  24996-3 0  9994
2 43549  51.6366 159.9117 0006343  10.8248 349.2881 15.60621526 47141
ENDUROSAT ONE           
1 43551U 98067NZ  19135.08583241  .00020700  00000-0  23788-3 0  9998
2 43551  51.6366 155.4476 0006961  19.1398 340.9857 15.61975985 47667
EQUISAT                 
1 43552U 98067PA  19134.46469286  .00015053  00000-0  18207-3 0  9997
2 43552  51.6378 159.5629 0007129  15.8093 344.3121 15.60901459 47518
AEROCUBE 12A            
1 43556U 18046C   19134.67662078  .00002937  00000-0  11657-3 0  9996
2 43556  51.6402 224.6044 0007935 306.7558  53.2693 15.28613686 46209
AEROCUBE 12B            
1 43557U 18046D   19134.49116545  .00000815  00000-0  41664-4 0  9995
2 43557  51.6425 225.6130 0008011 306.4647  53.5594 15.28494317 46126
UITMSAT-1               
1 43589U 98067PD  19134.98134901  .00019926  00000-0  23853-3 0  9993
2 43589  51.6353 157.7242 0006592  24.5123 335.6183 15.60941178 43324
MAYA-1                  
1 43590U 98067PE  19134.08059506  .00013298  00000-0  16151-3 0  9992
2 43590  51.6350 162.2110 0006606  21.7593 338.3680 15.60918609 43116
BHUTAN-1                
1 43591U 98067PF  19135.22486225  .00021551  00000-0  25655-3 0  9992
2 43591  51.6363 156.3687 0006876  26.5203 333.6141 15.61029209 43293
SIRIUSSAT-1             
1 43595U 98067PG  19134.68176801  .00025274  00000-0  30853-3 0  9993
2 43595  51.6355 160.2251 0004191 351.3661   8.7259 15.60280229 42372
SIRIUSSAT-2             
1 43596U 98067PH  19134.64446986  .00024162  00000-0  29709-3 0  9997
2 43596  51.6367 160.7553 0004767 350.1748   9.9151 15.60116170 42364
TANUSHA-3               
1 43597U 98067PJ  19135.18574806  .00023563  00000-0  27560-3 0  9998
2 43597  51.6348 156.8188 0004672   5.7105 354.3942 15.61441816 42464
SURFSAT                 
1 43614U 18070B   19135.10098074  .00003994  00000-0  10867-3 0  9992
2 43614  93.0260 349.4090 0018930  81.0519 279.2875 15.37386684 37094
CP7 (DAVE)              
1 43615U 18070C   19135.10503891  .00003606  00000-0  98354-4 0  9999
2 43615  93.0262 349.4124 0019078  80.6724 279.6685 15.37316535 37093
ELFIN-B                 
1 43616U 18070D   19134.86566356  .00005395  00000-0  14437-3 0  9993
2 43616  93.0228 349.2327 0019951  84.5327 275.8201 15.37863959 37067
ELFIN-A                 
1 43617U 18070E   19134.66518732  .00008370  00000-0  22367-3 0  9994
2 43617  93.0285 349.3378 0019020  82.4817 277.8596 15.37904864 37033
CUBEBEL-1 (BSUSAT-1)    
1 43666U 18083E   19135.06821388  .00001566  00000-0  81406-4 0  9991
2 43666  97.5226 159.7815 0013691 313.3179 132.5367 15.17511585 30033
DEBRISSAT-2             
1 43680U 98067PR  19135.24602069  .00025523  00000-0  29251-3 0  9998
2 43680  51.6387 156.4987 0005001  22.0420 338.0791 15.61918212 51215
CICERO 10               
1 43690U 18088A   19134.26557505  .00001320  00000-0  60076-4 0  9999
2 43690  85.0369 341.8370 0014582 346.4595  13.6252 15.19594359 27950
IRVINE01                
1 43693U 18088D   19134.88468846  .00002938  00000-0  12943-3 0  9994
2 43693  85.0351 341.1079 0017239 327.6407  32.3776 15.21242830 28078
PROXIMA I               
1 43694U 18088E   19135.04124626  .00001273  00000-0  54906-4 0  9996
2 43694  85.0312 340.8559 0017938 317.1145  42.8697 15.21325521 28105
PROXIMA II              
1 43696U 18088G   19134.25120667  .00001184  00000-0  50938-4 0  9993
2 43696  85.0313 341.3789 0018062 320.1834  39.8081 15.21328785 27980
FACSAT-1                
1 43721U 18096C   19135.18397194  .00002844  00000-0  11229-3 0  9998
2 43721  97.4615 205.1035 0019869  92.0489 268.3025 15.26192532 25472
CENTAURI-2              
1 43722U 18096D   19134.77586512  .00002916  00000-0  11437-3 0  9998
2 43722  97.4615 204.7291 0020039  94.1236 266.2293 15.26388825 25405
INNOSAT-2               
1 43738U 18096V   19135.14820303  .00004194  00000-0  15249-3 0  9991
2 43738  97.4618 205.6088 0026418 103.9975 256.4204 15.28496603 25505
SIRION PATHFINDER-2     
1 43759U 18099B   19135.18524603 -.00000019  00000-0  35403-5 0  9994
2 43759  97.7464 207.5893 0015763  77.4944 282.8039 14.95112656 24264
CORVUS-BC 4             
1 43767U 18099K   19135.17848656 -.00000089  00000-0 -29677-5 0  9993
2 43767  97.7451 207.4135 0013327  80.5084 279.7642 14.94557266 24265
SHIELDS 1               
1 43850U 18104B   19135.10828577  .00000042  00000-0  00000+0 0  9996
2 43850  85.0252  79.3022 0017586  95.5142 264.8221 15.21047447 22767
STF-1                   
1 43852U 18104D   19134.37843254  .00000042  00000-0  00000-0 0  9996
2 43852  85.0319  79.9705 0017594 109.0247 251.2991 15.20529919 22642
ZACUBE-2                
1 43907U 18111AH  19135.20882880  .00000873  00000-0  38497-4 0  9993
2 43907  97.2927  41.3880 0023379 111.2962 249.0775 15.24148723 21195
LUME 1                  
1 43908U 18111AJ  19134.81078703  .00001581  00000-0  67183-4 0  9992
2 43908  97.2926  41.0091 0023322 112.6608 247.7099 15.24259246 21137
AOBA VELOX-IV           
1 43940U 19003J   19135.06978338  .00002710  00000-0  11503-3 0  9999
2 43940  97.2796 194.0014 0024188 190.3269 238.2189 15.23673468 17819
CATSAT-2                
1 44029U 98067PV  19134.35427148  .00010866  00000-0  16085-3 0  9995
2 44029  51.6386 167.8126 0005719  18.2032 341.9163 15.55834032 16076
DELPHINI                
1 44030U 98067PW  19134.35160246  .00011851  00000-0  17432-3 0  9992
2 44030  51.6377 167.7892 0005494  17.4975 342.6205 15.55907266 16046
UNITE                   
1 44031U 98067PX  19134.56294317  .00014886  00000-0  22233-3 0  9999
2 44031  51.6379 166.9517 0003935  18.1009 342.0121 15.55261600 16077
TECHEDSAT 8             
1 44032U 98067PY  19134.60119921  .00049070  00000-0  63933-3 0  9997
2 44032  51.6373 165.7078 0005240  13.2991 346.8139 15.58216927 16074
CATSAT-1                
1 44033U 98067PZ  19134.67537572  .00016197  00000-0  23622-3 0  9996
2 44033  51.6385 166.2073 0005549  19.9610 340.1598 15.55831133 16033
